[
  {
    "COMMENT": "GENERATED VIA SPACETRACK.ORG API",
    "ORIGINATOR": "18 SPCS",
    "NORAD_CAT_ID": "41335",
    "OBJECT_NAME": "SENTINEL 3A",
    "OBJECT_TYPE": "PAYLOAD",
    "CLASSIFICATION_TYPE": "U",
    "INTLDES": "16011A",
    "EPOCH": "2023-07-04 16:32:17",
    "EPOCH_MICROSECONDS": "439072",
    "MEAN_MOTION": "14.26742078",
    "ECCENTRICITY": "0.0001195",
    "INCLINATION": "98.6209",
    "RA_OF_ASC_NODE": "252.4813",
    "ARG_OF_PERICENTER": "90.8326",
    "MEAN_ANOMALY": "269.2992",
    "EPHEMERIS_TYPE": "0",
    "ELEMENT_SET_NO": "999",
    "REV_AT_EPOCH": "38427",
    "BSTAR": "0.000075323",
    "MEAN_MOTION_DOT": "0.00000139",
    "MEAN_MOTION_DDOT": "0",
    "FILE": "3949494",
    "TLE_LINE0": "0 SENTINEL 3A",
    "TLE_LINE1": "1 41335U 16011A   23185.68909073  .00000139  00000-0  75323-4 0  9993",
    "TLE_LINE2": "2 41335  98.6209 252.4813 0001195  90.8326 269.2992 14.26742078384275",
    "OBJECT_ID": "2016-011A",
    "OBJECT_NUMBER": "41335",
    "SEMIMAJOR_AXIS": "7180.778",
    "PERIOD": "100.929",
    "APOGEE": "803.502",
    "PERIGEE": "801.785",
    "DECAYED": "0"
  },
  {
    "COMMENT": "GENERATED VIA SPACETRACK.ORG API",
    "ORIGINATOR": "18 SPCS",
    "NORAD_CAT_ID": "41335",
    "OBJECT_NAME": "SENTINEL 3A",
    "OBJECT_TYPE": "PAYLOAD",
    "CLASSIFICATION_TYPE": "U",
    "INTLDES": "16011A",
    "EPOCH": "2023-07-05 00:57:13",
    "EPOCH_MICROSECONDS": "434912",
    "MEAN_MOTION": "14.26742165",
    "ECCENTRICITY": "0.0001191",
    "INCLINATION": "98.6208",
    "RA_OF_ASC_NODE": "252.8267",
    "ARG_OF_PERICENTER": "90.941",
    "MEAN_ANOMALY": "269.1906",
    "EPHEMERIS_TYPE": "0",
    "ELEMENT_SET_NO": "999",
    "REV_AT_EPOCH": "38432",
    "BSTAR": "0.000073244",
    "MEAN_MOTION_DOT": "0.00000134",
    "MEAN_MOTION_DDOT": "0",
    "FILE": "3949728",
    "TLE_LINE0": "0 SENTINEL 3A",
    "TLE_LINE1": "1 41335U 16011A   23186.03973883  .00000134  00000-0  73244-4 0  9998",
    "TLE_LINE2": "2 41335  98.6208 252.8267 0001191  90.9410 269.1906 14.26742165384329",
    "OBJECT_ID": "2016-011A",
    "OBJECT_NUMBER": "41335",
    "SEMIMAJOR_AXIS": "7180.778",
    "PERIOD": "100.929",
    "APOGEE": "803.498",
    "PERIGEE": "801.788",
    "DECAYED": "0"
  },
  {
    "COMMENT": "GENERATED VIA SPACETRACK.ORG API",
    "ORIGINATOR": "18 SPCS",
    "NORAD_CAT_ID": "41335",
    "OBJECT_NAME": "SENTINEL 3A",
    "OBJECT_TYPE": "PAYLOAD",
    "CLASSIFICATION_TYPE": "U",
    "INTLDES": "16011A",
    "EPOCH": "2023-07-05 11:03:08",
    "EPOCH_MICROSECONDS": "626464",
    "MEAN_MOTION": "14.26742292",
    "ECCENTRICITY": "0.0001187",
    "INCLINATION": "98.6208",
    "RA_OF_ASC_NODE": "253.2413",
    "ARG_OF_PERICENTER": "90.9839",
    "MEAN_ANOMALY": "269.1478",
    "EPHEMERIS_TYPE": "0",
    "ELEMENT_SET_NO": "999",
    "REV_AT_EPOCH": "38438",
    "BSTAR": "0.000072269",
    "MEAN_MOTION_DOT": "0.00000131",
    "MEAN_MOTION_DDOT": "0",
    "FILE": "3950018",
    "TLE_LINE0": "0 SENTINEL 3A",
    "TLE_LINE1": "1 41335U 16011A   23186.46051651  .00000131  00000-0  72269-4 0  9998",
    "TLE_LINE2": "2 41335  98.6208 253.2413 0001187  90.9839 269.1478 14.26742292384388",
    "OBJECT_ID": "2016-011A",
    "OBJECT_NUMBER": "41335",
    "SEMIMAJOR_AXIS": "7180.778",
    "PERIOD": "100.929",
    "APOGEE": "803.495",
    "PERIGEE": "801.790",
    "DECAYED": "0"
  },
  {
    "COMMENT": "GENERATED VIA SPACETRACK.ORG API",
    "ORIGINATOR": "18 SPCS",
    "NORAD_CAT_ID": "41335",
    "OBJECT_NAME": "SENTINEL 3A",
    "OBJECT_TYPE": "PAYLOAD",
    "CLASSIFICATION_TYPE": "U",
    "INTLDES": "16011A",
    "EPOCH": "2023-07-06 02:12:01",
    "EPOCH_MICROSECONDS": "760256",
    "MEAN_MOTION": "14.26735079",
    "ECCENTRICITY": "0.0001182",
    "INCLINATION": "98.6207",
    "RA_OF_ASC_NODE": "253.8631",
    "ARG_OF_PERICENTER": "89.0833",
    "MEAN_ANOMALY": "271.0483",
    "EPHEMERIS_TYPE": "0",
    "ELEMENT_SET_NO": "999",
    "REV_AT_EPOCH": "38447",
    "BSTAR": "0.000072991",
    "MEAN_MOTION_DOT": "0.00000133",
    "MEAN_MOTION_DDOT": "0",
    "FILE": "3950575",
    "TLE_LINE0": "0 SENTINEL 3A",
    "TLE_LINE1": "1 41335U 16011A   23187.09168704  .00000133  00000-0  72991-4 0  9990",
    "TLE_LINE2": "2 41335  98.6207 253.8631 0001182  89.0833 271.0483 14.26735079384476",
    "OBJECT_ID": "2016-011A",
    "OBJECT_NUMBER": "41335",
    "SEMIMAJOR_AXIS": "7180.802",
    "PERIOD": "100.930",
    "APOGEE": "803.516",
    "PERIGEE": "801.818",
    "DECAYED": "0"
  },
  {
    "COMMENT": "GENERATED VIA SPACETRACK.ORG API",
    "ORIGINATOR": "18 SPCS",
    "NORAD_CAT_ID": "41335",
    "OBJECT_NAME": "SENTINEL 3A",
    "OBJECT_TYPE": "PAYLOAD",
    "CLASSIFICATION_TYPE": "U",
    "INTLDES": "16011A",
    "EPOCH": "2023-07-06 10:36:57",
    "EPOCH_MICROSECONDS": "909024",
    "MEAN_MOTION": "14.26735113",
    "ECCENTRICITY": "0.0001181",
    "INCLINATION": "98.6208",
    "RA_OF_ASC_NODE": "254.2085",
    "ARG_OF_PERICENTER": "89.2371",
    "MEAN_ANOMALY": "270.8945",
    "EPHEMERIS_TYPE": "0",
    "ELEMENT_SET_NO": "999",
    "REV_AT_EPOCH": "38452",
    "BSTAR": "0.000075115",
    "MEAN_MOTION_DOT": "0.00000138",
    "MEAN_MOTION_DDOT": "0",
    "FILE": "3950888",
    "TLE_LINE0": "0 SENTINEL 3A",
    "TLE_LINE1": "1 41335U 16011A   23187.44233691  .00000138  00000-0  75115-4 0  9993",
    "TLE_LINE2": "2 41335  98.6208 254.2085 0001181  89.2371 270.8945 14.26735113384528",
    "OBJECT_ID": "2016-011A",
    "OBJECT_NUMBER": "41335",
    "SEMIMAJOR_AXIS": "7180.802",
    "PERIOD": "100.930",
    "APOGEE": "803.515",
    "PERIGEE": "801.819",
    "DECAYED": "0"
  },
  {
    "COMMENT": "GENERATED VIA SPACETRACK.ORG API",
    "ORIGINATOR": "18 SPCS",
    "NORAD_CAT_ID": "41335",
    "OBJECT_NAME": "SENTINEL 3A",
    "OBJECT_TYPE": "PAYLOAD",
    "CLASSIFICATION_TYPE": "U",
    "INTLDES": "16011A",
    "EPOCH": "2023-07-06 17:20:54",
    "EPOCH_MICROSECONDS": "821472",
    "MEAN_MOTION": "14.26735219",
    "ECCENTRICITY": "0.0001176",
    "INCLINATION": "98.6208",
    "RA_OF_ASC_NODE": "254.4849",
    "ARG_OF_PERICENTER": "89.2512",
    "MEAN_ANOMALY": "270.8803",
    "EPHEMERIS_TYPE": "0",
    "ELEMENT_SET_NO": "999",
    "REV_AT_EPOCH": "38456",
    "BSTAR": "0.000076444",
    "MEAN_MOTION_DOT": "0.00000141",
    "MEAN_MOTION_DDOT": "0",
    "FILE": "3951220",
    "TLE_LINE0": "0 SENTINEL 3A",
    "TLE_LINE1": "1 41335U 16011A   23187.72285673  .00000141  00000-0  76444-4 0  9991",
    "TLE_LINE2": "2 41335  98.6208 254.4849 0001176  89.2512 270.8803 14.26735219384563",
    "OBJECT_ID": "2016-011A",
    "OBJECT_NUMBER": "41335",
    "SEMIMAJOR_AXIS": "7180.801",
    "PERIOD": "100.930",
    "APOGEE": "803.511",
    "PERIGEE": "801.822",
    "DECAYED": "0"
  },
  {
    "COMMENT": "GENERATED VIA SPACETRACK.ORG API",
    "ORIGINATOR": "18 SPCS",
    "NORAD_CAT_ID": "41335",
    "OBJECT_NAME": "SENTINEL 3A",
    "OBJECT_TYPE": "PAYLOAD",
    "CLASSIFICATION_TYPE": "U",
    "INTLDES": "16011A",
    "EPOCH": "2023-07-07 03:26:50",
    "EPOCH_MICROSECONDS": "196192",
    "MEAN_MOTION": "14.26735138",
    "ECCENTRICITY": "0.0001176",
    "INCLINATION": "98.6207",
    "RA_OF_ASC_NODE": "254.8994",
    "ARG_OF_PERICENTER": "89.4059",
    "MEAN_ANOMALY": "270.7256",
    "EPHEMERIS_TYPE": "0",
    "ELEMENT_SET_NO": "999",
    "REV_AT_EPOCH": "38462",
    "BSTAR": "0.000023137",
    "MEAN_MOTION_DOT": "0.00000012",
    "MEAN_MOTION_DDOT": "0",
    "FILE": "3951494",
    "TLE_LINE0": "0 SENTINEL 3A",
    "TLE_LINE1": "1 41335U 16011A   23188.14363653  .00000012  00000-0  23137-4 0  9991",
    "TLE_LINE2": "2 41335  98.6207 254.8994 0001176  89.4059 270.7256 14.26735138384623",
    "OBJECT_ID": "2016-011A",
    "OBJECT_NUMBER": "41335",
    "SEMIMAJOR_AXIS": "7180.802",
    "PERIOD": "100.930",
    "APOGEE": "803.511",
    "PERIGEE": "801.822",
    "DECAYED": "0"
  },
  {
    "COMMENT": "GENERATED VIA SPACETRACK.ORG API",
    "ORIGINATOR": "18 SPCS",
    "NORAD_CAT_ID": "41335",
    "OBJECT_NAME": "SENTINEL 3A",
    "OBJECT_TYPE": "PAYLOAD",
    "CLASSIFICATION_TYPE": "U",
    "INTLDES": "16011A",
    "EPOCH": "2023-07-07 10:10:47",
    "EPOCH_MICROSECONDS": "109504",
    "MEAN_MOTION": "14.26735109",
    "ECCENTRICITY": "0.0001171",
    "INCLINATION": "98.6208",
    "RA_OF_ASC_NODE": "255.1758",
    "ARG_OF_PERICENTER": "89.501",
    "MEAN_ANOMALY": "270.6305",
    "EPHEMERIS_TYPE": "0",
    "ELEMENT_SET_NO": "999",
    "REV_AT_EPOCH": "38466",
    "BSTAR": "0.000006637",
    "MEAN_MOTION_DOT": "-0.00000028",
    "MEAN_MOTION_DDOT": "0",
    "FILE": "3951770",
    "TLE_LINE0": "0 SENTINEL 3A",
    "TLE_LINE1": "1 41335U 16011A   23188.42415636 -.00000028  00000-0  66370-5 0  9996",
    "TLE_LINE2": "2 41335  98.6208 255.1758 0001171  89.5010 270.6305 14.26735109384665",
    "OBJECT_ID": "2016-011A",
    "OBJECT_NUMBER": "41335",
    "SEMIMAJOR_AXIS": "7180.802",
    "PERIOD": "100.930",
    "APOGEE": "803.508",
    "PERIGEE": "801.826",
    "DECAYED": "0"
  }
]